#cP2016  7 21  0  0  0.00000000      96 ORBIT IGb08 HLM  IGS
## 1906 345600.00000000   900.00000000 57590 0.0000000000000
+   32   G01G02G03G04G05G06G07G08G09G10G11G12G13G14G15G16G17
+        G18G19G20G21G22G23G24G25G26G27G28G29G30G31G32  0  0
+          0  0  0  0  0  0  0  0  0  0  0  0  0  0  0  0  0
+          0  0  0  0  0  0  0  0  0  0  0  0  0  0  0  0  0
+          0  0  0  0  0  0  0  0  0  0  0  0  0  0  0  0  0
++         2  2  2  0  2  2  2  1  2  1  2  2  2  2  2  2  2
++         2  2  2  2  2  2  2  2  2  2  2  2  2  2  2  0  0
++         0  0  0  0  0  0  0  0  0  0  0  0  0  0  0  0  0
++         0  0  0  0  0  0  0  0  0  0  0  0  0  0  0  0  0
++         0  0  0  0  0  0  0  0  0  0  0  0  0  0  0  0  0
%c G  cc GPS ccc cccc cccc cccc cccc ccccc ccccc ccccc ccccc
%c cc cc ccc ccc cccc cccc cccc cccc ccccc ccccc ccccc ccccc
%f  1.2500000  1.025000000  0.00000000000  0.000000000000000
%f  0.0000000  0.000000000  0.00000000000  0.000000000000000
%i    0    0    0    0      0      0      0      0         0
%i    0    0    0    0      0      0      0      0         0
/* FINAL ORBIT COMBINATION FROM WEIGHTED AVERAGE OF:        
/* cod emr esa gfz grg jpl mit ngs sio                      
/* REFERENCED TO IGS TIME (IGST) AND TO WEIGHTED MEAN POLE: 
/* PCV:IGS08_1904 OL/AL:FES2004  NONE     Y  ORB:CMB CLK:CMB
*  2016  7 21 12  0  0.00000000
PG01  -7910.823631 -14009.730259 -21261.175204     27.647371  5  5  6 113       
PG02 -14688.724239  14526.678009  16923.037127    574.116147  5  3  3 104       
PG03 -12990.764834 -22800.489137  -4105.730886    -74.724922  6  3    106       
PG04  15283.573460  -2904.804784  21354.086038 999999.999999
PG05  -2869.241825  18590.406977  18605.417718   -103.861168  3  3  3  85       
PG06 -25116.955429   6590.893684   5604.174201    221.618257  5  3  2  76       
PG07 -22686.535522  -6855.848566  12551.494855    440.489098  7  2  3  95       
PG08   4270.269473 -24722.933727  -8609.761148    -43.586279  3  2  4  99       
PG09 -11179.311416 -11681.037709  21055.747479    171.613065  5  4  3  89       
PG10  18376.651863   2543.761533 -19013.779689    -69.527446  4  1  3 103       
PG11  -2703.051462 -17158.793156 -20657.322818   -656.632993  6  6  3 109       
PG12  10016.521668  23775.142343  -6898.491290    385.788510  5  4  5  96       
PG13 -12264.003864  23532.257133  -2042.012777    -32.562821  8  4  3  93       
PG14  17977.013658 -14228.537504 -13010.346187    -25.727835  8  5  5  76       
PG15  -1014.924562  24382.922158 -10169.958720   -320.262605  5  5  3  87       
PG16   3463.843639 -17983.394029  18978.456876     -3.467511  3  5  3  70       
PG17 -17415.095760   7042.977160 -18369.521153   -203.868027  8  4  6  97       
PG18  20257.713941  13915.655830  -9827.447591    538.788589 10  5  6  77       
PG19 -18284.770059  15207.183648 -12435.700136   -524.814603  8  5  6  81       
PG20  12150.227074  22388.814194   7307.317002    425.504562  9  6  3 111       
PG21  24077.970955   4981.928706  11080.539470   -528.838016  9  2  5 131       
PG22  -7101.596176 -22850.810361 -11164.388307    291.490696  3  4  3  92       
PG23  -5207.840577 -19340.348359  17422.608068   -183.025324  3  2  5  81       
PG24   3829.929388  15092.632242 -21582.326559    -20.504290  5  5    106       
PG25  17757.789046  19337.531257   4522.729204   -212.446208  4  5  5  97       
PG26  11411.076018 -10137.365218  21730.831465   -428.847541  2  4     83       
PG27  12105.119364 -23408.533550   2405.610041    117.239657  6  3     95       
PG28 -17803.248597  -6272.703049 -18075.752735    538.776099  9  4  6  98       
PG29   8249.261378  14464.823885  20701.034027    655.126474  7  5  5  98       
PG30 -26325.103240  -1581.120462   3617.071620    140.976512  8  4  4 117       
PG31  23844.354141  -8009.069133   9186.522542    257.724673  8  3  5 110       
PG32  17536.448795  -8531.083572 -18007.618268    -54.752191  4  4  2 103       
*  2016  7 21 12 15  0.00000000
PG01  -5497.446978 -14360.670954 -21762.763563     27.648488  5  4  6 106       
PG02 -16470.925994  14628.249994  15002.935855    574.112542  4  3  3  99       
PG03 -12406.442263 -22458.616689  -6865.617476    -74.727603  6  3     99       
PG04  16688.490418   -923.943317  20492.847928 999999.999999
PG05  -4367.042674  16940.088174  19861.306444   -103.858837  4  3  3  76       
PG06 -25624.475395   6421.470214   2793.653750    221.622957  4  3  3  84       
PG07 -21188.503186  -7186.631208  14774.358532    440.486748  7  2  3  87       
PG08   4800.167860 -25412.913942  -5910.218511    -43.587798  3  1  4  80       
PG09 -10227.840843 -13848.723589  20207.139721    171.619490  5  4  3  91       
PG10  19557.146155   4273.118905 -17471.544738    -69.533847  5  2  3 112       
PG11   -699.107941 -18159.879119 -19931.931016   -656.634098  5  6  3  97       
PG12   9375.888880  23101.940367  -9592.430867    385.789306  4  4  4  98       
PG13 -12484.323819  23475.704726    827.668126    -32.565013  8  3  2  86       
PG14  17419.681232 -12652.221655 -15186.379360    -25.729504  8  5  4  86       
PG15  -1655.652061  25239.691272  -7615.608621   -320.263997  4  4  3  97       
PG16   4807.989425 -16146.690049  20317.321014     -3.465482  5  5  4  83       
PG17 -16579.726924   4953.096559 -19763.979148   -203.868170  8  5  6 105       
PG18  20683.237663  14923.586947  -7297.820527    538.792095 10  6  6  72       
PG19 -17718.006430  13810.892138 -14693.353400   -524.814349  8  5  6  74       
PG20  11225.487818  21873.518618   9854.756732    425.506285  8  5  3 113       
PG21  22841.172218   5425.664424  13388.080457   -528.839406  9  2  5 131       
PG22  -5934.835076 -21931.731397 -13423.343721    291.482472  2  3  3 114       
PG23  -4310.084174 -20999.917759  15591.762061   -183.026729  3  1  5  74       
PG24   1399.486199  15482.833546 -21582.759229    -20.504003  4  5  2 107       
PG25  17832.255437  19743.134530   1672.144279   -212.452493  4  6  5 101       
PG26  12952.059227  -8187.155396  21693.385841   -428.856188  2  4    103       
PG27  12156.928342 -22909.129206   5248.639014    117.243636  7  3    101       
PG28 -18844.273114  -8067.679824 -16284.341937    538.778598  9  4  5  88       
PG29   7192.695237  16506.086724  19538.563244    655.126223  7  5  5  91       
PG30 -25774.402883  -1885.767511   6371.975556    140.978501  7  3  4 115       
PG31  24735.268505  -7917.916480   6520.678908    257.723157  8  3  4 104       
PG32  16862.658974  -6488.272436 -19446.143633    -54.762118  4  4  3  99       
*  2016  7 21 12 30  0.00000000
PG01  -3068.959049 -14846.620300 -21893.531138     27.649597  5  4  6 117       
PG02 -18027.562900  14762.765889  12827.347953    574.108724  5  4  3 106       
PG03 -11603.674970 -21917.513231  -9507.339363    -74.730312  6  2    118       
PG04  18122.843078    882.489847  19274.347360 999999.999999
PG05  -6025.497184  15275.146284  20771.831349   -103.856364  4  4  4  89       
PG06 -25825.516296   6215.628888    -64.929964    221.627656  3  3  3  96       
PG07 -19478.172360  -7638.810844  16750.032328    440.484551  6  2  3 101       
PG08   5194.718702 -25833.507405  -3108.590857    -43.589427  3  2  3  62       
PG09  -9424.621683 -15952.356091  19010.290637    171.626007  5  3  3  98       
PG10  20698.880089   5794.702929 -15628.999823    -69.540140  5  2  2 119       
PG11   1179.447280 -19195.507782 -18879.037808   -656.635137  5  5  3 108       
PG12   8515.596354  22235.488505 -12124.103447    385.790264  4  4  4  91       
PG13 -12570.146307  23137.603169   3683.157107    -32.567395  8  3  1  92       
PG14  16852.963218 -10833.139510 -17094.671877    -25.731136  7  5  3  97       
PG15  -2178.757887  25839.422803  -4928.043867   -320.265348  3  4  2  76       
PG16   6331.540253 -14284.443335  21299.949843     -3.463341  6  5  5  82       
PG17 -15806.503871   2690.602310 -20806.930173   -203.867893  8  5  6  96       
PG18  20956.771427  15691.733321  -4642.088025    538.795961 10  6  6  99       
PG19 -17131.486596  12167.678560 -16706.040139   -524.814281  9  6  7  82       
PG20  10076.454995  21208.586840  12231.180462    425.508264  8  5  2 113       
PG21  21394.618257   5980.384785  15476.925460   -528.840306  9  3  5 140       
PG22  -4560.415603 -20888.758175 -15446.780011    291.474395  3  3  3  92       
PG23  -3563.460359 -22493.912621  13491.036565   -183.028333  2     4  44       
PG24   -989.892678  15990.836681 -21213.432006    -20.504489  4  5  3 102       
PG25  17716.407735  19899.841567  -1206.923077   -212.458774  4  6  5  99       
PG26  14575.247821  -6339.061442  21282.627444   -428.864829  2  4     97       
PG27  12134.457103 -22110.962272   8000.309527    117.247619  7  2  1  95       
PG28 -19847.223852  -9617.934532 -14200.302578    538.781532  9  4  5  94       
PG29   6305.993559  18462.002974  18040.235936    655.125766  5  4  4  93       
PG30 -24937.727174  -2257.421139   9017.905822    140.980468  6  3  4 117       
PG31  25328.714583  -7825.231148   3745.314545    257.721075  8  3  3 106       
PG32  16249.976852  -4276.836894 -20549.446664    -54.772042  4  4  3 109       
EOF
